[{"OBJECT_NAME":"DONGPO 08","OBJECT_ID":"2022-167E","EPOCH":"2026-03-09T22:57:52.742880","MEAN_MOTION":15.31542505,"ECCENTRICITY":0.00092155,"INCLINATION":97.6764,"RA_OF_ASC_NODE":233.3854,"ARG_OF_PERICENTER":153.9158,"MEAN_ANOMALY":206.2548,"EPHEMERIS_TYPE":0,"CLASSIFICATION_TYPE":"U","NORAD_CAT_ID":54686,"ELEMENT_SET_NO":999,"REV_AT_EPOCH":18012,"BSTAR":0.0004734784,"MEAN_MOTION_DOT":0.0001437,"MEAN_MOTION_DDOT":0},{"OBJECT_NAME":"STARLINK-31995","OBJECT_ID":"2024-107P","EPOCH":"2026-03-09T06:35:29.872320","MEAN_MOTION":15.30196126,"ECCENTRICITY":0.0001148,"INCLINATION":53.1589,"RA_OF_ASC_NODE":67.4043,"ARG_OF_PERICENTER":72.8895,"MEAN_ANOMALY":287.2232,"EPHEMERIS_TYPE":0,"CLASSIFICATION_TYPE":"U","NORAD_CAT_ID":59958,"ELEMENT_SET_NO":999,"REV_AT_EPOCH":9853,"BSTAR":4.0266984e-5,"MEAN_MOTION_DOT":8.34e-6,"MEAN_MOTION_DDOT":0}]
